{
  "norad_id": 55762,
  "name": "STARLINK-5603",
  "history": [
    {
      "epoch": "2026-03-28T16:06:05.565600",
      "apogee_km": 574.3378541968623,
      "perigee_km": 569.7828338615318,
      "latitude_deg": -52.71418715817686,
      "longitude_deg": -179.39381600008346,
      "semi_major_axis_km": 6950.197344029197,
      "eccentricity": 0.00032769,
      "inclination_deg": 70.001,
      "raan_deg": 176.7071,
      "arg_perigee_deg": 266.7454,
      "mean_anomaly_deg": 93.333,
      "mean_motion_rev_day": 14.9832856
    }
  ]
}